OBJECT_NAME,OBJECT_ID,EPOCH,MEAN_MOTION,ECCENTRICITY,INCLINATION,RA_OF_ASC_NODE,ARG_OF_PERICENTER,MEAN_ANOMALY,EPHEMERIS_TYPE,CLASSIFICATION_TYPE,NORAD_CAT_ID,ELEMENT_SET_NO,REV_AT_EPOCH,BSTAR,MEAN_MOTION_DOT,MEAN_MOTION_DDOT
STARLINK-37244,2026-068X,2026-07-14T10:08:07.121760,15.34397553,.00011478,53.1582,258.1059,90.3918,269.7216,0,U,68529,999,1638,.33360401E-3,.10911E-3,0
STARLINK-36285,2026-068Y,2026-07-14T11:15:27.107136,15.34391727,.00010511,53.1577,259.8089,89.4986,270.6137,0,U,68530,999,1636,.13195448E-3,.4083E-4,0
STARLINK-36294,2026-068Z,2026-07-14T11:24:32.386176,15.34394906,.00009467,53.1576,259.8426,96.8997,263.2113,0,U,68531,999,1636,.1152404E-3,.3519E-4,0
STARLINK-36249,2026-068AA,2026-07-14T11:38:53.185920,15.34385485,.00013048,53.1574,257.7861,73.1555,286.9590,0,U,68532,999,1639,.48428384E-4,.126E-4,0
STARLINK-36252,2026-068AB,2026-07-14T09:56:02.211072,15.34365314,.00012609,53.1570,258.0494,75.3150,284.7992,0,U,68533,999,1638,.25270662E-3,.8162E-4,0
STARLINK-36299,2026-068AC,2026-07-14T11:32:49.277760,15.34393935,.00008511,53.1558,257.7557,113.4444,246.6648,0,U,68534,999,1639,.24871255E-3,.8035E-4,0
STARLINK-37234,2026-068AD,2026-07-14T11:34:36.205536,15.49325478,.0001392,53.1580,253.4869,64.0312,296.0840,0,U,68535,999,1645,.59896868E-3,.33024E-3,0
STARLINK-37173,2026-068AE,2026-07-14T09:56:36.343392,15.49336890,.0002101,53.1573,253.7753,158.8022,201.3074,0,U,68536,999,1644,.57884915E-3,.31909E-3,0
STARLINK-37326,2026-070A,2026-07-14T05:44:21.409152,15.34394246,.00012423,53.1575,133.1045,86.2154,273.8991,0,U,68542,999,1595,.42165024E-3,.13894E-3,0
STARLINK-36308,2026-070B,2026-07-14T02:33:44.057952,15.34391260,.00011593,53.1580,133.7001,61.7837,298.3282,0,U,68543,999,1593,.29974207E-3,.9762E-4,0
STARLINK-37263,2026-070C,2026-07-14T13:24:14.949504,15.34392430,.00013301,53.1572,131.5478,71.8783,288.2365,0,U,68544,999,1600,.36689016E-3,.12037E-3,0
STARLINK-37289,2026-070D,2026-07-14T13:27:16.748064,15.34394081,.00012836,53.1584,131.5625,65.6958,294.4178,0,U,68545,999,1600,.36447759E-3,.11956E-3,0
STARLINK-37290,2026-070E,2026-07-14T13:21:13.104288,15.34393809,.00022484,53.1589,131.5164,109.2552,250.8694,0,U,68546,999,1600,.41340296E-3,.13614E-3,0
STARLINK-37245,2026-070F,2026-07-14T13:12:07.646400,15.34393172,.0001274,53.1593,131.4891,99.5363,260.5784,0,U,68547,999,1600,.41923195E-3,.13811E-3,0
STARLINK-37145,2026-070G,2026-07-14T13:18:10.216224,15.34196967,.00005767,53.1585,131.5191,234.3997,125.6952,0,U,68548,999,1600,-.8633115E-2,-.279667E-2,0
STARLINK-36204,2026-070H,2026-07-14T13:09:05.888448,15.34394080,.00015975,53.1596,131.4777,92.5063,267.6122,0,U,68549,999,1600,.15987504E-3,.5028E-4,0
STARLINK-36304,2026-070J,2026-07-14T13:03:02.645568,15.34383686,.00012514,53.1585,131.4524,76.9129,283.2013,0,U,68550,999,1600,.37422436E-3,.12282E-3,0
STARLINK-37288,2026-070K,2026-07-14T13:00:00.612864,15.34388859,.00016454,53.1578,131.4366,94.9622,265.1569,0,U,68551,999,1600,.33790648E-3,.11053E-3,0
STARLINK-37295,2026-070L,2026-07-14T13:06:04.148640,15.34389262,.00014398,53.1593,131.4648,99.2546,260.8619,0,U,68552,999,1600,.31694716E-3,.10343E-3,0
STARLINK-37254,2026-070M,2026-07-14T05:01:56.618112,15.34385413,.0001281,53.1581,132.9184,78.2414,281.8732,0,U,68553,999,1595,.34441461E-3,.11273E-3,0
STARLINK-37255,2026-070N,2026-07-14T06:32:41.086464,15.34442635,.00008108,53.1569,132.6025,91.2089,268.9006,0,U,68554,999,1596,.85917705E-3,.28803E-3,0
STARLINK-37146,2026-070P,2026-07-14T12:53:56.884416,15.34395341,.00015047,53.1589,131.4022,94.7003,265.4171,0,U,68555,999,1600,.40563983E-3,.13351E-3,0
STARLINK-37144,2026-070Q,2026-07-14T12:41:49.646976,15.34395371,.00012696,53.1586,131.3424,101.4209,258.6937,0,U,68556,999,1600,.46081435E-3,.15222E-3,0
STARLINK-37210,2026-070R,2026-07-14T12:44:51.558720,15.34391907,.00016356,53.1568,131.3630,93.1620,266.9569,0,U,68557,999,1600,.30404374E-3,.9907E-4,0
STARLINK-37227,2026-070S,2026-07-14T12:38:48.070464,15.34393845,.00015743,53.1583,131.3416,94.6964,265.4218,0,U,68558,999,1600,.41553575E-3,.13686E-3,0
STARLINK-37294,2026-070T,2026-07-14T12:35:46.160448,15.34398964,.00014356,53.1579,131.3278,85.0841,275.0325,0,U,68559,999,1600,.49564174E-3,.16406E-3,0
STARLINK-37291,2026-070U,2026-07-14T12:32:44.298816,15.34394546,.00013695,53.1577,131.3148,96.8115,263.3043,0,U,68560,999,1600,.27199075E-3,.8823E-4,0
STARLINK-37114,2026-070V,2026-07-14T12:29:42.489888,15.34394034,.00014206,53.1587,131.2973,94.5580,265.5585,0,U,68561,999,1600,.31892507E-3,.10412E-3,0
STARLINK-37233,2026-070W,2026-07-14T12:23:38.751936,15.34392678,.00015229,53.1586,131.2511,94.9426,265.1751,0,U,68562,999,1600,.26144039E-3,.8465E-4,0
STARLINK-36238,2026-070X,2026-07-14T12:26:40.725024,15.34393417,.00013522,53.1569,131.2845,88.5753,271.5405,0,U,68563,999,1600,.27755463E-3,.9011E-4,0
STARLINK-37008,2026-070Y,2026-07-14T12:20:37.059648,15.34397823,.00014339,53.1570,131.2404,76.3469,283.7693,0,U,68564,999,1600,.44629142E-3,.14731E-3,0
STARLINK-37161,2026-070Z,2026-07-14T06:02:24.260352,15.34391826,.00013401,53.1570,132.4446,78.1002,282.0150,0,U,68565,999,1596,.67616991E-3,.22532E-3,0
STARLINK-37212,2026-070AA,2026-07-14T05:59:22.251840,15.34410129,.00011553,53.1582,132.4445,122.1368,237.9747,0,U,68566,999,1596,.44954518E-3,.14847E-3,0
STARLINK-37261,2026-070AB,2026-07-14T05:56:20.508576,15.34390484,.00012784,53.1568,132.4150,84.0169,276.0980,0,U,68567,999,1596,.31521147E-3,.10285E-3,0
STARLINK-37283,2026-070AC,2026-07-14T05:50:25.053792,15.34395941,.00012002,53.1575,133.1304,67.1044,293.0085,0,U,68568,999,1595,.59477439E-3,.1977E-3,0
STARLINK-37256,2026-070AD,2026-07-14T05:53:21.194016,15.34388097,.00014473,53.1572,132.4386,93.8362,266.2806,0,U,68569,999,1596,.52668011E-3,.17453E-3,0
STARLINK-37228,2026-070AE,2026-07-14T05:47:23.294976,15.34395550,.00012294,53.1578,133.1273,63.0014,297.1114,0,U,68570,999,1595,.38820447E-3,.1276E-3,0
MERIDIAN-M 21L,2026-071A,2026-07-14T03:06:54.980928,2.00614447,.71608269,62.8157,225.1446,285.3132,11.3398,0,U,68571,999,205,0,.146E-5,0
KUIPER-00131,2026-072A,2026-07-14T08:55:17.399424,14.79935106,.00007195,51.9009,75.4396,105.0060,255.0982,0,U,68573,999,1514,.26654624E-3,.1811E-4,0
KUIPER-00189,2026-072B,2026-07-14T09:40:02.179200,14.79934377,.00008518,51.9000,77.7883,103.2986,256.8072,0,U,68574,999,1511,.39086817E-4,.77E-6,0
KUIPER-00192,2026-072C,2026-07-14T08:59:10.203360,14.79934106,.00008893,51.9012,72.9238,113.2622,246.8434,0,U,68575,999,1518,.268413E-3,.1826E-4,0
KUIPER-00193,2026-072D,2026-07-12T23:07:00.910272,14.76603137,.00007871,51.9051,69.1401,8.4291,351.6683,0,U,68576,999,1511,.19762693E-3,.1178E-4,0
KUIPER-00194,2026-072E,2026-07-14T08:14:24.521568,14.79920151,.00008088,51.9027,70.5755,141.1213,218.9807,0,U,68577,999,1521,.27713865E-3,.1892E-4,0
KUIPER-00229,2026-072F,2026-07-14T09:43:54.135552,14.79936305,.00008508,51.9017,75.2866,115.4455,244.6596,0,U,68578,999,1515,.18187482E-3,.1166E-4,0
KUIPER-00230,2026-072G,2026-07-13T22:55:36.843456,15.38625392,.00029465,51.8760,47.1120,114.6335,245.4960,0,U,68579,999,1550,.23587323E-3,.8755E-4,0
KUIPER-00231,2026-072H,2026-07-14T14:00:01.999872,14.95160675,.00027508,51.8964,47.3016,18.8067,330.6825,0,U,68580,999,551,-.14498182E-2,-.16304E-3,0
KUIPER-00234,2026-072J,2026-07-14T08:59:17.594016,14.77037631,.00009904,51.9012,70.3897,65.8572,294.2493,0,U,68581,999,1521,.83294342E-2,.5961E-3,0
KUIPER-00236,2026-072K,2026-07-14T07:13:57.361440,15.38141530,.00033888,51.8773,45.6785,113.2965,246.8379,0,U,68582,999,1555,.42834744E-3,.15981E-3,0
KUIPER-00244,2026-072L,2026-07-14T08:29:57.783264,14.79918186,.00014577,51.9013,60.5288,118.8045,241.3064,0,U,68583,999,1535,.25072618E-3,.169E-4,0
KUIPER-00253,2026-072M,2026-07-14T08:26:05.669664,14.79930214,.00007081,51.9054,63.0430,112.7263,247.3774,0,U,68584,999,1531,.18218411E-3,.1168E-4,0
KUIPER-00254,2026-072N,2026-07-14T09:10:49.559520,14.79930906,.00020584,51.9043,65.4042,121.0610,239.0555,0,U,68585,999,1528,.18394255E-3,.1181E-4,0
KUIPER-00263,2026-072P,2026-07-14T14:00:01.999872,14.83803155,.00007927,51.9013,49.6527,153.2160,81.1122,0,U,68586,999,548,-.54167807E-2,-.45242E-3,0
KUIPER-00269,2026-072Q,2026-07-14T14:00:01.999872,14.79916662,.00003573,51.9000,52.0127,78.8313,199.6551,0,U,68587,999,520,.35777241E-2,.27153E-3,0
KUIPER-00272,2026-072R,2026-07-13T22:27:07.492896,14.79935773,.00009159,51.8994,74.8548,108.7750,251.3312,0,U,68588,999,1511,.24962376E-3,.1682E-4,0
KUIPER-00285,2026-072S,2026-07-14T14:00:01.999872,14.79748004,.00028454,51.9045,52.0654,133.9467,325.3923,0,U,68589,999,546,.43531397E-2,.32982E-3,0
KUIPER-00286,2026-072T,2026-07-14T14:00:01.999872,14.82463028,.00030747,51.9007,49.1527,61.8439,209.6990,0,U,68590,999,579,-.58812301E-2,-.47531E-3,0
KUIPER-00289,2026-072U,2026-07-14T08:33:51.473664,14.79932827,.00007417,51.8995,58.0103,128.0313,232.0716,0,U,68591,999,1538,.1970099E-3,.1281E-4,0
KUIPER-00290,2026-072V,2026-07-14T14:00:01.999872,14.76449638,.0001025,51.9023,55.4804,125.2923,246.8591,0,U,68592,999,478,.36732372E-2,.25675E-3,0
KUIPER-00293,2026-072W,2026-07-14T08:18:18.916128,14.79937578,.00029247,51.8992,68.0415,127.7158,232.4070,0,U,68593,999,1524,.26405231E-3,.1792E-4,0
KUIPER-00294,2026-072X,2026-07-13T00:12:22.870656,14.79111002,.0000765,51.9005,61.4667,104.6810,255.4237,0,U,68594,999,1522,.59074792E-2,.44236E-3,0
KUIPER-00296,2026-072Y,2026-07-14T07:24:45.294048,15.37233299,.00097513,51.8709,45.6715,117.6164,242.5814,0,U,68595,999,1555,.5383615E-3,.19626E-3,0
KUIPER-00297,2026-072Z,2026-07-14T08:32:21.310080,14.76357796,.00011958,51.9004,67.7392,134.4400,225.6659,0,U,68596,999,1525,.16923536E-3,.971E-5,0
KUIPER-00300,2026-072AA,2026-07-14T08:20:44.437056,14.76474328,.00019029,51.9037,64.8340,131.0417,229.0708,0,U,68597,999,1529,.16966801E-3,.977E-5,0
KUIPER-00301,2026-072AB,2026-07-13T20:26:04.708032,15.38740983,.00095806,51.8665,47.8076,120.5455,239.6479,0,U,68598,999,1548,.50721645E-3,.19408E-3,0
